[{"OBJECT_NAME":"UWE-4","OBJECT_ID":"2018-111E","EPOCH":"2026-03-09T17:45:41.156352","MEAN_MOTION":15.39989264,"ECCENTRICITY":0.00075308,"INCLINATION":97.5841,"RA_OF_ASC_NODE":353.0294,"ARG_OF_PERICENTER":339.4687,"MEAN_ANOMALY":20.6255,"EPHEMERIS_TYPE":0,"CLASSIFICATION_TYPE":"U","NORAD_CAT_ID":43880,"ELEMENT_SET_NO":999,"REV_AT_EPOCH":39544,"BSTAR":0.00083385764,"MEAN_MOTION_DOT":0.00033304,"MEAN_MOTION_DDOT":0},{"OBJECT_NAME":"LASARSAT","OBJECT_ID":"2024-247Q","EPOCH":"2026-03-08T09:18:51.031296","MEAN_MOTION":15.40076521,"ECCENTRICITY":0.0002457,"INCLINATION":44.9748,"RA_OF_ASC_NODE":105.9976,"ARG_OF_PERICENTER":26.6184,"MEAN_ANOMALY":333.4829,"EPHEMERIS_TYPE":0,"CLASSIFICATION_TYPE":"U","NORAD_CAT_ID":62391,"ELEMENT_SET_NO":999,"REV_AT_EPOCH":6774,"BSTAR":0.0011460197,"MEAN_MOTION_DOT":0.00046774,"MEAN_MOTION_DDOT":0}]
