UWE-4                   
1 43880U 18111E   26068.74005968  .00033304  00000+0  83386-3 0  9999
2 43880  97.5841 353.0294 0007531 339.4687  20.6255 15.39989264395442
LASARSAT                
1 62391U 24247Q   26067.38809064  .00046774  00000+0  11460-2 0  9990
2 62391  44.9748 105.9976 0002457  26.6184 333.4829 15.40076521 67748
